<?xml version="1.0" encoding="UTF-8"?>
<ndm xmlns:xsi="http://www.w3.org/2001/XMLSchema-instance" xsi:noNamespaceSchemaLocation="https://sanaregistry.org/r/ndmxml_unqualified/ndmxml-2.0.0-master-2.0.xsd">
<omm id="CCSDS_OMM_VERS" version="2.0">
<header><CREATION_DATE/><ORIGINATOR/></header><body><segment><metadata><OBJECT_NAME>ONEWEB-0695</OBJECT_NAME><OBJECT_ID>2024-188J</OBJECT_ID><CENTER_NAME>EARTH</CENTER_NAME><REF_FRAME>TEME</REF_FRAME><TIME_SYSTEM>UTC</TIME_SYSTEM><MEAN_ELEMENT_THEORY>SGP4</MEAN_ELEMENT_THEORY></metadata><data><meanElements><EPOCH>2025-08-24T22:22:12.348768</EPOCH><MEAN_MOTION>13.11416175</MEAN_MOTION><ECCENTRICITY>.00013223</ECCENTRICITY><INCLINATION>87.8776</INCLINATION><RA_OF_ASC_NODE>80.1249</RA_OF_ASC_NODE><ARG_OF_PERICENTER>100.9986</ARG_OF_PERICENTER><MEAN_ANOMALY>259.1291</MEAN_ANOMALY></meanElements><tleParameters><EPHEMERIS_TYPE>0</EPHEMERIS_TYPE><CLASSIFICATION_TYPE>U</CLASSIFICATION_TYPE><NORAD_CAT_ID>61602</NORAD_CAT_ID><ELEMENT_SET_NO>999</ELEMENT_SET_NO><REV_AT_EPOCH>4563</REV_AT_EPOCH><BSTAR>.13096162E-2</BSTAR><MEAN_MOTION_DOT>.477E-5</MEAN_MOTION_DOT><MEAN_MOTION_DDOT>0</MEAN_MOTION_DDOT></tleParameters></data></segment></body></omm>
<omm id="CCSDS_OMM_VERS" version="2.0">
<header><CREATION_DATE/><ORIGINATOR/></header><body><segment><metadata><OBJECT_NAME>ONEWEB-0697</OBJECT_NAME><OBJECT_ID>2024-188K</OBJECT_ID><CENTER_NAME>EARTH</CENTER_NAME><REF_FRAME>TEME</REF_FRAME><TIME_SYSTEM>UTC</TIME_SYSTEM><MEAN_ELEMENT_THEORY>SGP4</MEAN_ELEMENT_THEORY></metadata><data><meanElements><EPOCH>2025-08-24T19:28:52.810176</EPOCH><MEAN_MOTION>13.11414001</MEAN_MOTION><ECCENTRICITY>.00008681</ECCENTRICITY><INCLINATION>87.8768</INCLINATION><RA_OF_ASC_NODE>80.1407</RA_OF_ASC_NODE><ARG_OF_PERICENTER>82.5366</ARG_OF_PERICENTER><MEAN_ANOMALY>277.5861</MEAN_ANOMALY></meanElements><tleParameters><EPHEMERIS_TYPE>0</EPHEMERIS_TYPE><CLASSIFICATION_TYPE>U</CLASSIFICATION_TYPE><NORAD_CAT_ID>61603</NORAD_CAT_ID><ELEMENT_SET_NO>999</ELEMENT_SET_NO><REV_AT_EPOCH>4560</REV_AT_EPOCH><BSTAR>-.68799246E-3</BSTAR><MEAN_MOTION_DOT>-.231E-5</MEAN_MOTION_DOT><MEAN_MOTION_DDOT>0</MEAN_MOTION_DDOT></tleParameters></data></segment></body></omm>
<omm id="CCSDS_OMM_VERS" version="2.0">
<header><CREATION_DATE/><ORIGINATOR/></header><body><segment><metadata><OBJECT_NAME>ONEWEB-0698</OBJECT_NAME><OBJECT_ID>2024-188L</OBJECT_ID><CENTER_NAME>EARTH</CENTER_NAME><REF_FRAME>TEME</REF_FRAME><TIME_SYSTEM>UTC</TIME_SYSTEM><MEAN_ELEMENT_THEORY>SGP4</MEAN_ELEMENT_THEORY></metadata><data><meanElements><EPOCH>2025-08-24T20:47:01.839264</EPOCH><MEAN_MOTION>13.11415688</MEAN_MOTION><ECCENTRICITY>.00012718</ECCENTRICITY><INCLINATION>87.8771</INCLINATION><RA_OF_ASC_NODE>80.1438</RA_OF_ASC_NODE><ARG_OF_PERICENTER>46.2861</ARG_OF_PERICENTER><MEAN_ANOMALY>313.8372</MEAN_ANOMALY></meanElements><tleParameters><EPHEMERIS_TYPE>0</EPHEMERIS_TYPE><CLASSIFICATION_TYPE>U</CLASSIFICATION_TYPE><NORAD_CAT_ID>61604</NORAD_CAT_ID><ELEMENT_SET_NO>999</ELEMENT_SET_NO><REV_AT_EPOCH>4563</REV_AT_EPOCH><BSTAR>.14497791E-2</BSTAR><MEAN_MOTION_DOT>.527E-5</MEAN_MOTION_DOT><MEAN_MOTION_DDOT>0</MEAN_MOTION_DDOT></tleParameters></data></segment></body></omm>
<omm id="CCSDS_OMM_VERS" version="2.0">
<header><CREATION_DATE/><ORIGINATOR/></header><body><segment><metadata><OBJECT_NAME>ONEWEB-0699</OBJECT_NAME><OBJECT_ID>2024-188M</OBJECT_ID><CENTER_NAME>EARTH</CENTER_NAME><REF_FRAME>TEME</REF_FRAME><TIME_SYSTEM>UTC</TIME_SYSTEM><MEAN_ELEMENT_THEORY>SGP4</MEAN_ELEMENT_THEORY></metadata><data><meanElements><EPOCH>2025-08-24T15:25:52.605408</EPOCH><MEAN_MOTION>13.10375978</MEAN_MOTION><ECCENTRICITY>.00011331</ECCENTRICITY><INCLINATION>87.8768</INCLINATION><RA_OF_ASC_NODE>95.3985</RA_OF_ASC_NODE><ARG_OF_PERICENTER>72.2247</ARG_OF_PERICENTER><MEAN_ANOMALY>287.9004</MEAN_ANOMALY></meanElements><tleParameters><EPHEMERIS_TYPE>0</EPHEMERIS_TYPE><CLASSIFICATION_TYPE>U</CLASSIFICATION_TYPE><NORAD_CAT_ID>61605</NORAD_CAT_ID><ELEMENT_SET_NO>999</ELEMENT_SET_NO><REV_AT_EPOCH>4447</REV_AT_EPOCH><BSTAR>-.14380429E-2</BSTAR><MEAN_MOTION_DOT>-.489E-5</MEAN_MOTION_DOT><MEAN_MOTION_DDOT>0</MEAN_MOTION_DDOT></tleParameters></data></segment></body></omm>
<omm id="CCSDS_OMM_VERS" version="2.0">
<header><CREATION_DATE/><ORIGINATOR/></header><body><segment><metadata><OBJECT_NAME>ONEWEB-0700</OBJECT_NAME><OBJECT_ID>2024-188N</OBJECT_ID><CENTER_NAME>EARTH</CENTER_NAME><REF_FRAME>TEME</REF_FRAME><TIME_SYSTEM>UTC</TIME_SYSTEM><MEAN_ELEMENT_THEORY>SGP4</MEAN_ELEMENT_THEORY></metadata><data><meanElements><EPOCH>2025-08-24T20:58:07.835520</EPOCH><MEAN_MOTION>13.10375380</MEAN_MOTION><ECCENTRICITY>.00012132</ECCENTRICITY><INCLINATION>87.8740</INCLINATION><RA_OF_ASC_NODE>95.2419</RA_OF_ASC_NODE><ARG_OF_PERICENTER>101.6314</ARG_OF_PERICENTER><MEAN_ANOMALY>258.4949</MEAN_ANOMALY></meanElements><tleParameters><EPHEMERIS_TYPE>0</EPHEMERIS_TYPE><CLASSIFICATION_TYPE>U</CLASSIFICATION_TYPE><NORAD_CAT_ID>61606</NORAD_CAT_ID><ELEMENT_SET_NO>999</ELEMENT_SET_NO><REV_AT_EPOCH>4449</REV_AT_EPOCH><BSTAR>-.1536797E-2</BSTAR><MEAN_MOTION_DOT>-.524E-5</MEAN_MOTION_DOT><MEAN_MOTION_DDOT>0</MEAN_MOTION_DDOT></tleParameters></data></segment></body></omm>
<omm id="CCSDS_OMM_VERS" version="2.0">
<header><CREATION_DATE/><ORIGINATOR/></header><body><segment><metadata><OBJECT_NAME>ONEWEB-0701</OBJECT_NAME><OBJECT_ID>2024-188P</OBJECT_ID><CENTER_NAME>EARTH</CENTER_NAME><REF_FRAME>TEME</REF_FRAME><TIME_SYSTEM>UTC</TIME_SYSTEM><MEAN_ELEMENT_THEORY>SGP4</MEAN_ELEMENT_THEORY></metadata><data><meanElements><EPOCH>2025-08-24T14:02:13.200864</EPOCH><MEAN_MOTION>13.10377767</MEAN_MOTION><ECCENTRICITY>.00008823</ECCENTRICITY><INCLINATION>87.8763</INCLINATION><RA_OF_ASC_NODE>95.4164</RA_OF_ASC_NODE><ARG_OF_PERICENTER>70.5864</ARG_OF_PERICENTER><MEAN_ANOMALY>289.5358</MEAN_ANOMALY></meanElements><tleParameters><EPHEMERIS_TYPE>0</EPHEMERIS_TYPE><CLASSIFICATION_TYPE>U</CLASSIFICATION_TYPE><NORAD_CAT_ID>61607</NORAD_CAT_ID><ELEMENT_SET_NO>999</ELEMENT_SET_NO><REV_AT_EPOCH>4446</REV_AT_EPOCH><BSTAR>.88985607E-3</BSTAR><MEAN_MOTION_DOT>.323E-5</MEAN_MOTION_DOT><MEAN_MOTION_DDOT>0</MEAN_MOTION_DDOT></tleParameters></data></segment></body></omm>
<omm id="CCSDS_OMM_VERS" version="2.0">
<header><CREATION_DATE/><ORIGINATOR/></header><body><segment><metadata><OBJECT_NAME>ONEWEB-0702</OBJECT_NAME><OBJECT_ID>2024-188Q</OBJECT_ID><CENTER_NAME>EARTH</CENTER_NAME><REF_FRAME>TEME</REF_FRAME><TIME_SYSTEM>UTC</TIME_SYSTEM><MEAN_ELEMENT_THEORY>SGP4</MEAN_ELEMENT_THEORY></metadata><data><meanElements><EPOCH>2025-08-24T20:03:04.071456</EPOCH><MEAN_MOTION>13.11418283</MEAN_MOTION><ECCENTRICITY>.00008537</ECCENTRICITY><INCLINATION>87.8711</INCLINATION><RA_OF_ASC_NODE>80.0899</RA_OF_ASC_NODE><ARG_OF_PERICENTER>102.9561</ARG_OF_PERICENTER><MEAN_ANOMALY>257.1662</MEAN_ANOMALY></meanElements><tleParameters><EPHEMERIS_TYPE>0</EPHEMERIS_TYPE><CLASSIFICATION_TYPE>U</CLASSIFICATION_TYPE><NORAD_CAT_ID>61608</NORAD_CAT_ID><ELEMENT_SET_NO>999</ELEMENT_SET_NO><REV_AT_EPOCH>4564</REV_AT_EPOCH><BSTAR>-.84137867E-3</BSTAR><MEAN_MOTION_DOT>-.285E-5</MEAN_MOTION_DOT><MEAN_MOTION_DDOT>0</MEAN_MOTION_DDOT></tleParameters></data></segment></body></omm>
<omm id="CCSDS_OMM_VERS" version="2.0">
<header><CREATION_DATE/><ORIGINATOR/></header><body><segment><metadata><OBJECT_NAME>ONEWEB-0704</OBJECT_NAME><OBJECT_ID>2024-188R</OBJECT_ID><CENTER_NAME>EARTH</CENTER_NAME><REF_FRAME>TEME</REF_FRAME><TIME_SYSTEM>UTC</TIME_SYSTEM><MEAN_ELEMENT_THEORY>SGP4</MEAN_ELEMENT_THEORY></metadata><data><meanElements><EPOCH>2025-08-24T21:05:18.279456</EPOCH><MEAN_MOTION>13.10376863</MEAN_MOTION><ECCENTRICITY>.00008068</ECCENTRICITY><INCLINATION>87.8786</INCLINATION><RA_OF_ASC_NODE>95.3040</RA_OF_ASC_NODE><ARG_OF_PERICENTER>104.0212</ARG_OF_PERICENTER><MEAN_ANOMALY>256.1005</MEAN_ANOMALY></meanElements><tleParameters><EPHEMERIS_TYPE>0</EPHEMERIS_TYPE><CLASSIFICATION_TYPE>U</CLASSIFICATION_TYPE><NORAD_CAT_ID>61609</NORAD_CAT_ID><ELEMENT_SET_NO>999</ELEMENT_SET_NO><REV_AT_EPOCH>4448</REV_AT_EPOCH><BSTAR>-.10403121E-2</BSTAR><MEAN_MOTION_DOT>-.35E-5</MEAN_MOTION_DOT><MEAN_MOTION_DDOT>0</MEAN_MOTION_DDOT></tleParameters></data></segment></body></omm>
<omm id="CCSDS_OMM_VERS" version="2.0">
<header><CREATION_DATE/><ORIGINATOR/></header><body><segment><metadata><OBJECT_NAME>ONEWEB-0705</OBJECT_NAME><OBJECT_ID>2024-188S</OBJECT_ID><CENTER_NAME>EARTH</CENTER_NAME><REF_FRAME>TEME</REF_FRAME><TIME_SYSTEM>UTC</TIME_SYSTEM><MEAN_ELEMENT_THEORY>SGP4</MEAN_ELEMENT_THEORY></metadata><data><meanElements><EPOCH>2025-08-24T13:52:40.014624</EPOCH><MEAN_MOTION>13.10377210</MEAN_MOTION><ECCENTRICITY>.00017535</ECCENTRICITY><INCLINATION>87.8765</INCLINATION><RA_OF_ASC_NODE>95.4010</RA_OF_ASC_NODE><ARG_OF_PERICENTER>123.0239</ARG_OF_PERICENTER><MEAN_ANOMALY>237.1057</MEAN_ANOMALY></meanElements><tleParameters><EPHEMERIS_TYPE>0</EPHEMERIS_TYPE><CLASSIFICATION_TYPE>U</CLASSIFICATION_TYPE><NORAD_CAT_ID>61610</NORAD_CAT_ID><ELEMENT_SET_NO>999</ELEMENT_SET_NO><REV_AT_EPOCH>3661</REV_AT_EPOCH><BSTAR>-.35603569E-3</BSTAR><MEAN_MOTION_DOT>-.112E-5</MEAN_MOTION_DOT><MEAN_MOTION_DDOT>0</MEAN_MOTION_DDOT></tleParameters></data></segment></body></omm>

</ndm>
